COSMOS 2251 DEB         
1 36558U 93036BDU 17343.95539655  .00000372  00000-0  12145-3 0  9991
2 36558  74.0467 200.6330 0017793 291.7307  68.1954 14.41960445432401
